ONEWEB-0243             
1 48774U 21045H   26062.64947161  .00000096  00000+0  22050-3 0  9992
2 48774  87.8945 280.2949 0001238 107.1003 253.0263 13.15550073230481
ONEWEB-0222             
1 48775U 21045J   26062.63282963 -.00000051  00000+0 -16862-3 0  9991
2 48775  87.8955 280.2581 0001682  95.6688 264.4634 13.15547922230520
ONEWEB-0244             
1 48776U 21045K   26062.65896548  .00000159  00000+0  38772-3 0  9995
2 48776  87.8955 280.2427 0001532  94.8738 265.2567 13.15546888231098
ONEWEB-0247             
1 48777U 21045L   26062.65580282  .00000143  00000+0  34661-3 0  9997
2 48777  87.8946 280.2885 0001522 121.4225 238.7054 13.15547416230536
ONEWEB-0245             
1 48778U 21045M   26062.65104154  .00000133  00000+0  31931-3 0  9994
2 48778  87.8954 280.2590 0001775  90.9969 269.1364 13.15547107230500
ONEWEB-0229             
1 48779U 21045N   26062.64628785  .00000044  00000+0  81630-4 0  9998
2 48779  87.8951 280.2584 0001465  91.4958 268.6341 13.15547393230530
ONEWEB-0228             
1 48780U 21045P   26062.67970387  .00000246  00000+0  61810-3 0  9992
2 48780  87.8953 280.2390 0001562  91.9865 268.1444 13.15546653230457
ONEWEB-0232             
1 48781U 21045Q   26062.57814743 -.00000013  00000+0 -67441-4 0  9996
2 48781  87.8958 280.2573 0001519  90.3569 269.7735 13.15548170230762
ONEWEB-0231             
1 48782U 21045R   26062.63203044 -.00000094  00000+0 -28418-3 0  9999
2 48782  87.8946 280.2744 0001664  97.3737 262.7583 13.15547399230468
ONEWEB-0234             
1 48783U 21045S   26062.66992052  .00000152  00000+0  36862-3 0  9992
2 48783  87.8947 280.2456 0002337  77.4346 282.7045 13.15550244230607
ONEWEB-0238             
1 48784U 21045T   26062.67019778  .00000202  00000+0  50325-3 0  9995
2 48784  87.8947 280.2387 0001932  81.7997 278.3352 13.15546639230505
ONEWEB-0240             
1 48785U 21045U   26062.61540082  .00000025  00000+0  32053-4 0  9999
2 48785  87.8956 280.2507 0001821  95.4564 264.6774 13.15547918230528
ONEWEB-0246             
1 48786U 21045V   26062.60984480  .00000048  00000+0  93982-4 0  9996
2 48786  87.8958 280.2616 0001467  90.6663 269.4635 13.15547333230390
ONEWEB-0210             
1 48787U 21045W   26062.66054894  .00000205  00000+0  51169-3 0  9995
2 48787  87.8953 280.2481 0001188 125.7724 234.3516 13.15547124230447
ONEWEB-0214             
1 48788U 21045X   26062.66927102  .00000160  00000+0  39133-3 0  9994
2 48788  87.8959 280.2420 0001203  99.3244 260.8022 13.15547303230410
ONEWEB-0221             
1 48789U 21045Y   26062.67639549  .00000153  00000+0  37136-3 0  9994
2 48789  87.8954 280.2510 0001641  95.9631 264.1686 13.15547418230504
ONEWEB-0213             
1 48790U 21045Z   26062.66530595  .00000140  00000+0  33874-3 0  9997
2 48790  87.8957 280.2569 0001506 100.7613 259.3687 13.15547886230560
