[{"OBJECT_NAME":"ONEWEB-0243","OBJECT_ID":"2021-045H","EPOCH":"2026-03-03T15:35:14.347104","MEAN_MOTION":13.15550073,"ECCENTRICITY":0.0001238,"INCLINATION":87.8945,"RA_OF_ASC_NODE":280.2949,"ARG_OF_PERICENTER":107.1003,"MEAN_ANOMALY":253.0263,"EPHEMERIS_TYPE":0,"CLASSIFICATION_TYPE":"U","NORAD_CAT_ID":48774,"ELEMENT_SET_NO":999,"REV_AT_EPOCH":23048,"BSTAR":0.0002205,"MEAN_MOTION_DOT":9.6e-7,"MEAN_MOTION_DDOT":0},{"OBJECT_NAME":"ONEWEB-0222","OBJECT_ID":"2021-045J","EPOCH":"2026-03-03T15:11:16.480032","MEAN_MOTION":13.15547922,"ECCENTRICITY":0.0001682,"INCLINATION":87.8955,"RA_OF_ASC_NODE":280.2581,"ARG_OF_PERICENTER":95.6688,"MEAN_ANOMALY":264.4634,"EPHEMERIS_TYPE":0,"CLASSIFICATION_TYPE":"U","NORAD_CAT_ID":48775,"ELEMENT_SET_NO":999,"REV_AT_EPOCH":23052,"BSTAR":-0.00016862,"MEAN_MOTION_DOT":-5.1e-7,"MEAN_MOTION_DDOT":0},{"OBJECT_NAME":"ONEWEB-0244","OBJECT_ID":"2021-045K","EPOCH":"2026-03-03T15:48:54.617472","MEAN_MOTION":13.15546888,"ECCENTRICITY":0.0001532,"INCLINATION":87.8955,"RA_OF_ASC_NODE":280.2427,"ARG_OF_PERICENTER":94.8738,"MEAN_ANOMALY":265.2567,"EPHEMERIS_TYPE":0,"CLASSIFICATION_TYPE":"U","NORAD_CAT_ID":48776,"ELEMENT_SET_NO":999,"REV_AT_EPOCH":23109,"BSTAR":0.00038772,"MEAN_MOTION_DOT":1.59e-6,"MEAN_MOTION_DDOT":0},{"OBJECT_NAME":"ONEWEB-0247","OBJECT_ID":"2021-045L","EPOCH":"2026-03-03T15:44:21.363648","MEAN_MOTION":13.15547416,"ECCENTRICITY":0.0001522,"INCLINATION":87.8946,"RA_OF_ASC_NODE":280.2885,"ARG_OF_PERICENTER":121.4225,"MEAN_ANOMALY":238.7054,"EPHEMERIS_TYPE":0,"CLASSIFICATION_TYPE":"U","NORAD_CAT_ID":48777,"ELEMENT_SET_NO":999,"REV_AT_EPOCH":23053,"BSTAR":0.00034661,"MEAN_MOTION_DOT":1.43e-6,"MEAN_MOTION_DDOT":0},{"OBJECT_NAME":"ONEWEB-0245","OBJECT_ID":"2021-045M","EPOCH":"2026-03-03T15:37:29.989056","MEAN_MOTION":13.15547107,"ECCENTRICITY":0.0001775,"INCLINATION":87.8954,"RA_OF_ASC_NODE":280.259,"ARG_OF_PERICENTER":90.9969,"MEAN_ANOMALY":269.1364,"EPHEMERIS_TYPE":0,"CLASSIFICATION_TYPE":"U","NORAD_CAT_ID":48778,"ELEMENT_SET_NO":999,"REV_AT_EPOCH":23050,"BSTAR":0.00031931,"MEAN_MOTION_DOT":1.33e-6,"MEAN_MOTION_DDOT":0},{"OBJECT_NAME":"ONEWEB-0229","OBJECT_ID":"2021-045N","EPOCH":"2026-03-03T15:30:39.270240","MEAN_MOTION":13.15547393,"ECCENTRICITY":0.0001465,"INCLINATION":87.8951,"RA_OF_ASC_NODE":280.2584,"ARG_OF_PERICENTER":91.4958,"MEAN_ANOMALY":268.6341,"EPHEMERIS_TYPE":0,"CLASSIFICATION_TYPE":"U","NORAD_CAT_ID":48779,"ELEMENT_SET_NO":999,"REV_AT_EPOCH":23053,"BSTAR":8.163e-5,"MEAN_MOTION_DOT":4.4e-7,"MEAN_MOTION_DDOT":0},{"OBJECT_NAME":"ONEWEB-0228","OBJECT_ID":"2021-045P","EPOCH":"2026-03-03T16:18:46.414368","MEAN_MOTION":13.15546653,"ECCENTRICITY":0.0001562,"INCLINATION":87.8953,"RA_OF_ASC_NODE":280.239,"ARG_OF_PERICENTER":91.9865,"MEAN_ANOMALY":268.1444,"EPHEMERIS_TYPE":0,"CLASSIFICATION_TYPE":"U","NORAD_CAT_ID":48780,"ELEMENT_SET_NO":999,"REV_AT_EPOCH":23045,"BSTAR":0.0006181,"MEAN_MOTION_DOT":2.46e-6,"MEAN_MOTION_DDOT":0},{"OBJECT_NAME":"ONEWEB-0232","OBJECT_ID":"2021-045Q","EPOCH":"2026-03-03T13:52:31.937952","MEAN_MOTION":13.1554817,"ECCENTRICITY":0.0001519,"INCLINATION":87.8958,"RA_OF_ASC_NODE":280.2573,"ARG_OF_PERICENTER":90.3569,"MEAN_ANOMALY":269.7735,"EPHEMERIS_TYPE":0,"CLASSIFICATION_TYPE":"U","NORAD_CAT_ID":48781,"ELEMENT_SET_NO":999,"REV_AT_EPOCH":23076,"BSTAR":-6.7441e-5,"MEAN_MOTION_DOT":-1.3e-7,"MEAN_MOTION_DDOT":0},{"OBJECT_NAME":"ONEWEB-0231","OBJECT_ID":"2021-045R","EPOCH":"2026-03-03T15:10:07.430016","MEAN_MOTION":13.15547399,"ECCENTRICITY":0.0001664,"INCLINATION":87.8946,"RA_OF_ASC_NODE":280.2744,"ARG_OF_PERICENTER":97.3737,"MEAN_ANOMALY":262.7583,"EPHEMERIS_TYPE":0,"CLASSIFICATION_TYPE":"U","NORAD_CAT_ID":48782,"ELEMENT_SET_NO":999,"REV_AT_EPOCH":23046,"BSTAR":-0.00028418,"MEAN_MOTION_DOT":-9.4e-7,"MEAN_MOTION_DDOT":0},{"OBJECT_NAME":"ONEWEB-0234","OBJECT_ID":"2021-045S","EPOCH":"2026-03-03T16:04:41.132928","MEAN_MOTION":13.15550244,"ECCENTRICITY":0.0002337,"INCLINATION":87.8947,"RA_OF_ASC_NODE":280.2456,"ARG_OF_PERICENTER":77.4346,"MEAN_ANOMALY":282.7045,"EPHEMERIS_TYPE":0,"CLASSIFICATION_TYPE":"U","NORAD_CAT_ID":48783,"ELEMENT_SET_NO":999,"REV_AT_EPOCH":23060,"BSTAR":0.00036862,"MEAN_MOTION_DOT":1.52e-6,"MEAN_MOTION_DDOT":0},{"OBJECT_NAME":"ONEWEB-0238","OBJECT_ID":"2021-045T","EPOCH":"2026-03-03T16:05:05.088192","MEAN_MOTION":13.15546639,"ECCENTRICITY":0.0001932,"INCLINATION":87.8947,"RA_OF_ASC_NODE":280.2387,"ARG_OF_PERICENTER":81.7997,"MEAN_ANOMALY":278.3352,"EPHEMERIS_TYPE":0,"CLASSIFICATION_TYPE":"U","NORAD_CAT_ID":48784,"ELEMENT_SET_NO":999,"REV_AT_EPOCH":23050,"BSTAR":0.00050325,"MEAN_MOTION_DOT":2.02e-6,"MEAN_MOTION_DDOT":0},{"OBJECT_NAME":"ONEWEB-0240","OBJECT_ID":"2021-045U","EPOCH":"2026-03-03T14:46:10.630848","MEAN_MOTION":13.15547918,"ECCENTRICITY":0.0001821,"INCLINATION":87.8956,"RA_OF_ASC_NODE":280.2507,"ARG_OF_PERICENTER":95.4564,"MEAN_ANOMALY":264.6774,"EPHEMERIS_TYPE":0,"CLASSIFICATION_TYPE":"U","NORAD_CAT_ID":48785,"ELEMENT_SET_NO":999,"REV_AT_EPOCH":23052,"BSTAR":3.2053e-5,"MEAN_MOTION_DOT":2.5e-7,"MEAN_MOTION_DDOT":0},{"OBJECT_NAME":"ONEWEB-0246","OBJECT_ID":"2021-045V","EPOCH":"2026-03-03T14:38:10.590720","MEAN_MOTION":13.15547333,"ECCENTRICITY":0.0001467,"INCLINATION":87.8958,"RA_OF_ASC_NODE":280.2616,"ARG_OF_PERICENTER":90.6663,"MEAN_ANOMALY":269.4635,"EPHEMERIS_TYPE":0,"CLASSIFICATION_TYPE":"U","NORAD_CAT_ID":48786,"ELEMENT_SET_NO":999,"REV_AT_EPOCH":23039,"BSTAR":9.3982e-5,"MEAN_MOTION_DOT":4.8e-7,"MEAN_MOTION_DDOT":0},{"OBJECT_NAME":"ONEWEB-0210","OBJECT_ID":"2021-045W","EPOCH":"2026-03-03T15:51:11.428416","MEAN_MOTION":13.15547124,"ECCENTRICITY":0.0001188,"INCLINATION":87.8953,"RA_OF_ASC_NODE":280.2481,"ARG_OF_PERICENTER":125.7724,"MEAN_ANOMALY":234.3516,"EPHEMERIS_TYPE":0,"CLASSIFICATION_TYPE":"U","NORAD_CAT_ID":48787,"ELEMENT_SET_NO":999,"REV_AT_EPOCH":23044,"BSTAR":0.00051169,"MEAN_MOTION_DOT":2.05e-6,"MEAN_MOTION_DDOT":0},{"OBJECT_NAME":"ONEWEB-0214","OBJECT_ID":"2021-045X","EPOCH":"2026-03-03T16:03:45.016128","MEAN_MOTION":13.15547303,"ECCENTRICITY":0.0001203,"INCLINATION":87.8959,"RA_OF_ASC_NODE":280.242,"ARG_OF_PERICENTER":99.3244,"MEAN_ANOMALY":260.8022,"EPHEMERIS_TYPE":0,"CLASSIFICATION_TYPE":"U","NORAD_CAT_ID":48788,"ELEMENT_SET_NO":999,"REV_AT_EPOCH":23041,"BSTAR":0.00039133,"MEAN_MOTION_DOT":1.6e-6,"MEAN_MOTION_DDOT":0},{"OBJECT_NAME":"ONEWEB-0221","OBJECT_ID":"2021-045Y","EPOCH":"2026-03-03T16:14:00.570336","MEAN_MOTION":13.15547418,"ECCENTRICITY":0.0001641,"INCLINATION":87.8954,"RA_OF_ASC_NODE":280.251,"ARG_OF_PERICENTER":95.9631,"MEAN_ANOMALY":264.1686,"EPHEMERIS_TYPE":0,"CLASSIFICATION_TYPE":"U","NORAD_CAT_ID":48789,"ELEMENT_SET_NO":999,"REV_AT_EPOCH":23050,"BSTAR":0.00037136,"MEAN_MOTION_DOT":1.53e-6,"MEAN_MOTION_DDOT":0},{"OBJECT_NAME":"ONEWEB-0213","OBJECT_ID":"2021-045Z","EPOCH":"2026-03-03T15:58:02.434080","MEAN_MOTION":13.15547886,"ECCENTRICITY":0.0001506,"INCLINATION":87.8957,"RA_OF_ASC_NODE":280.2569,"ARG_OF_PERICENTER":100.7613,"MEAN_ANOMALY":259.3687,"EPHEMERIS_TYPE":0,"CLASSIFICATION_TYPE":"U","NORAD_CAT_ID":48790,"ELEMENT_SET_NO":999,"REV_AT_EPOCH":23056,"BSTAR":0.00033874,"MEAN_MOTION_DOT":1.4e-6,"MEAN_MOTION_DDOT":0}]
